STARLINK-5061
1 54847U 22177AD  26090.83335647  .01107897  00000+0  40224-1 0  9998
2 54847  42.9998 345.2164 0000302 285.1560 204.0808 15.24991848  5769
